NORAD_CAT_ID,OBJECT_NAME,OBJECT_TYPE,EPOCH,MEAN_MOTION,ECCENTRICITY,INCLINATION,RA_OF_ASC_NODE,ARG_OF_PERICENTER,MEAN_ANOMALY,BSTAR,MEAN_MOTION_DOT,MEAN_MOTION_DDOT,TLE_LINE0,TLE_LINE1,TLE_LINE2,SEMIMAJOR_AXIS,PERIOD,APOGEE,PERIGEE,DECAYED
52992.0,STARLINK-4269,PAYLOAD,2023-03-29 17:36:17,15.08849099,0.0001035,53.216,254.2847,79.6219,280.4889,0.00045552,6.971e-05,0.0,0 STARLINK-4269,1 52992U 22076G   23088.73353950  .00006971  00000-0  45552-3 0  9997,2 52992  53.2160 254.2847 0001035  79.6219 280.4889 15.08849099 40748,6917.853,95.437,540.434,539.002,0.0
52992.0,STARLINK-4269,PAYLOAD,2023-03-29 22:22:26,15.0886324,9.84e-05,53.215,253.3901,76.026,284.0841,0.00059168,9.147e-05,0.0,0 STARLINK-4269,1 52992U 22076G   23088.93225320  .00009147  00000-0  59168-3 0  9994,2 52992  53.2150 253.3901 0000984  76.0260 284.0841 15.08863240 40772,6917.809,95.436,540.355,538.994,0.0
52992.0,STARLINK-4269,PAYLOAD,2023-03-30 15:51:41,15.08846356,0.0001229,53.2146,250.1206,60.6014,299.5101,0.0002456,3.624e-05,0.0,0 STARLINK-4269,1 52992U 22076G   23089.66089919  .00003624  00000-0  24560-3 0  9999,2 52992  53.2146 250.1206 0001229  60.6014 299.5101 15.08846356 40880,6917.861,95.437,540.576,538.876,0.0
52992.0,STARLINK-4269,PAYLOAD,2023-03-31 02:59:23,15.08829921,6.91e-05,53.2148,248.0389,164.331,195.7703,-0.00028056,-4.749e-05,0.0,0 STARLINK-4269,1 52992U 22076G   23090.12457742 -.00004749  00000-0 -28056-3 0  9990,2 52992  53.2148 248.0389 0000691 164.3310 195.7703 15.08829921 40955,6917.911,95.438,540.254,539.298,0.0
52992.0,STARLINK-4269,PAYLOAD,2023-03-31 17:17:51,15.08846382,8.38e-05,53.2156,245.364,75.6898,284.4187,0.00022436,3.285e-05,0.0,0 STARLINK-4269,1 52992U 22076G   23090.72073760  .00003285  00000-0  22436-3 0  9998,2 52992  53.2156 245.3640 0000838  75.6898 284.4187 15.08846382 41045,6917.861,95.437,540.306,539.146,0.0
52992.0,STARLINK-4269,PAYLOAD,2023-04-01 10:47:07,15.08823807,0.0001146,53.2162,242.0916,77.3054,282.8066,-0.00022999,-3.945e-05,0.0,0 STARLINK-4269,1 52992U 22076G   23091.44938660 -.00003945  00000-0 -22999-3 0  9996,2 52992  53.2162 242.0916 0001146  77.3054 282.8066 15.08823807 41155,6917.93,95.439,540.588,539.002,0.0
52992.0,STARLINK-4269,PAYLOAD,2023-04-01 17:08:39,15.08826391,0.000116,53.2162,240.9032,91.7902,268.3223,-9.2302e-05,-1.756e-05,0.0,0 STARLINK-4269,1 52992U 22076G   23091.71434830 -.00001756  00000-0 -92302-4 0  9990,2 52992  53.2162 240.9032 0001160  91.7902 268.3223 15.08826391 40726,6917.922,95.438,540.589,538.985,0.0
52992.0,STARLINK-4269,PAYLOAD,2023-04-02 02:40:58,15.08834906,0.000118,53.2165,239.1171,78.6154,281.4971,0.00022213,3.249e-05,0.0,0 STARLINK-4269,1 52992U 22076G   23092.11178929  .00003249  00000-0  22213-3 0  9999,2 52992  53.2165 239.1171 0001180  78.6154 281.4971 15.08834906 41254,6917.896,95.438,540.577,538.945,0.0
52992.0,STARLINK-4269,PAYLOAD,2023-04-02 10:37:54,15.08850759,0.0001065,53.2148,237.6305,80.037,280.0742,0.0008357,0.00013041,0.0,0 STARLINK-4269,1 52992U 22076G   23092.44298772  .00013041  00000-0  83570-3 0  9998,2 52992  53.2148 237.6305 0001065  80.0370 280.0742 15.08850759 41307,6917.848,95.437,540.449,538.976,0.0
52992.0,STARLINK-4269,PAYLOAD,2023-04-02 13:48:40,15.08859763,0.0001112,53.215,237.0361,76.6279,283.4837,0.0012586,0.0001981,0.0,0 STARLINK-4269,1 52992U 22076G   23092.57546710  .00019810  00000-0  12586-2 0  9998,2 52992  53.2150 237.0361 0001112  76.6279 283.4837 15.08859763 40853,6917.82,95.436,540.454,538.916,0.0
52992.0,STARLINK-4269,PAYLOAD,2023-04-02 18:34:49,15.08875349,0.0001149,53.2147,236.1442,71.5835,288.5282,0.0016279,0.0002574,0.0,0 STARLINK-4269,1 52992U 22076G   23092.77418258  .00025740  00000-0  16279-2 0  9997,2 52992  53.2147 236.1442 0001149  71.5835 288.5282 15.08875349 41355,6917.772,95.435,540.432,538.842,0.0
52992.0,STARLINK-4269,PAYLOAD,2023-04-03 02:31:45,15.08851649,0.0001069,53.2143,234.6586,71.1959,288.9149,0.00045288,6.929e-05,0.0,0 STARLINK-4269,1 52992U 22076G   23093.10538464  .00006929  00000-0  45288-3 0  9998,2 52992  53.2143 234.6586 0001069  71.1959 288.9149 15.08851649 41406,6917.845,95.437,540.449,538.97,0.0
52992.0,STARLINK-4269,PAYLOAD,2023-04-03 08:53:18,15.08852608,0.0002513,53.2148,233.4676,78.6582,281.4692,0.0011134,0.00017483,0.0,0 STARLINK-4269,1 52992U 22076G   23093.37034923  .00017483  00000-0  11134-2 0  9997,2 52992  53.2148 233.4676 0002513  78.6582 281.4692 15.08852608 40975,6917.842,95.437,541.445,537.968,0.0
52992.0,STARLINK-4269,PAYLOAD,2023-04-03 18:25:37,15.0883731,0.0001238,53.215,231.6838,77.8481,282.2649,0.0013322,0.00020976,0.0,0 STARLINK-4269,1 52992U 22076G   23093.76779013  .00020976  00000-0  13322-2 0  9998,2 52992  53.2150 231.6838 0001238  77.8481 282.2649 15.08837310 41504,6917.889,95.438,540.61,538.897,0.0
52992.0,STARLINK-4269,PAYLOAD,2023-04-04 05:33:19,15.08842489,0.0001308,53.2144,229.6021,80.4753,279.6387,0.00077297,0.00012036,0.0,0 STARLINK-4269,1 52992U 22076G   23094.23147125  .00012036  00000-0  77297-3 0  9994,2 52992  53.2144 229.6021 0001308  80.4753 279.6387 15.08842489 41106,6917.873,95.437,540.643,538.833,0.0
52992.0,STARLINK-4269,PAYLOAD,2023-04-05 13:21:02,15.08837063,0.0001309,53.2146,223.6541,77.2126,282.9013,0.00014205,1.973e-05,0.0,0 STARLINK-4269,1 52992U 22076G   23095.55627511  .00001973  00000-0  14205-3 0  9990,2 52992  53.2146 223.6541 0001309  77.2126 282.9013 15.08837063 41776,6917.889,95.438,540.66,538.849,0.0
52992.0,STARLINK-4269,PAYLOAD,2023-04-05 14:56:25,15.08838985,0.0001106,53.2149,223.3546,86.0982,274.0137,0.000171,2.435e-05,0.0,0 STARLINK-4269,1 52992U 22076G   23095.62251421  .00002435  00000-0  17100-3 0  9992,2 52992  53.2149 223.3546 0001106  86.0982 274.0137 15.08838985 41317,6917.883,95.438,540.514,538.983,0.0
52992.0,STARLINK-4269,PAYLOAD,2023-04-06 11:36:27,15.08808758,0.0001023,53.2156,219.4906,108.1561,251.9542,0.0011516,0.00018072,0.0,0 STARLINK-4269,1 52992U 22076G   23096.48365512  .00018072  00000-0  11516-2 0  9992,2 52992  53.2156 219.4906 0001023 108.1561 251.9542 15.08808758 41913,6917.976,95.44,540.549,539.133,0.0
52992.0,STARLINK-4269,PAYLOAD,2023-04-07 11:27:12,15.08843147,0.0001239,53.2155,215.0298,97.5428,262.5705,0.00019458,2.81e-05,0.0,0 STARLINK-4269,1 52992U 22076G   23097.47723327  .00002810  00000-0  19458-3 0  9991,2 52992  53.2155 215.0298 0001239  97.5428 262.5705 15.08843147 42067,6917.871,95.437,540.593,538.879,0.0
52992.0,STARLINK-4269,PAYLOAD,2023-04-08 11:18:00,15.08836927,0.0001236,53.2164,210.5706,97.4942,262.6191,3.4224e-06,-2.33e-06,0.0,0 STARLINK-4269,1 52992U 22076G   23098.47083560 -.00000233  00000-0  34224-5 0  9998,2 52992  53.2164 210.5706 0001236  97.4942 262.6191 15.08836927 42213,6917.89,95.438,540.61,538.9,0.0
52992.0,STARLINK-4269,PAYLOAD,2023-04-08 12:53:23,15.08837731,0.0001279,53.2161,210.2731,97.7258,262.388,9.0026e-06,-1.45e-06,0.0,0 STARLINK-4269,1 52992U 22076G   23098.53707520 -.00000145  00000-0  90026-5 0  9998,2 52992  53.2161 210.2731 0001279  97.7258 262.3880 15.08837731 41759,6917.887,95.438,540.637,538.868,0.0
52992.0,STARLINK-4269,PAYLOAD,2023-04-09 11:08:47,15.08839502,0.0001353,53.2166,206.11,107.1453,252.9688,0.00015149,2.124e-05,0.0,0 STARLINK-4269,1 52992U 22076G   23099.46443424  .00002124  00000-0  15149-3 0  9990,2 52992  53.2166 206.1100 0001353 107.1453 252.9688 15.08839502 41898,6917.882,95.438,540.683,538.811,0.0
52992.0,STARLINK-4269,PAYLOAD,2023-04-09 15:54:56,15.08843176,0.0001273,53.2165,205.2181,106.1953,253.9179,0.00018836,2.711e-05,0.0,0 STARLINK-4269,1 52992U 22076G   23099.66315254  .00002711  00000-0  18836-3 0  9999,2 52992  53.2165 205.2181 0001273 106.1953 253.9179 15.08843176 42395,6917.871,95.437,540.616,538.855,0.0
52992.0,STARLINK-4269,PAYLOAD,2023-04-10 07:48:48,15.08836315,0.0001201,53.2163,202.2445,102.5674,257.5453,4.4706e-05,4.24e-06,0.0,0 STARLINK-4269,1 52992U 22076G   23100.32555590  .00000424  00000-0  44706-4 0  9999,2 52992  53.2163 202.2445 0001201 102.5674 257.5453 15.08836315 42497,6917.892,95.438,540.587,538.926,0.0
52992.0,STARLINK-4269,PAYLOAD,2023-04-11 12:25:43,15.08854869,0.0001342,53.2155,196.8912,98.5919,261.5226,0.00030365,4.55e-05,0.0,0 STARLINK-4269,1 52992U 22076G   23101.51786709  .00004550  00000-0  30365-3 0  9998,2 52992  53.2155 196.8912 0001342  98.5919 261.5226 15.08854869 42203,6917.835,95.437,540.628,538.772,0.0
52992.0,STARLINK-4269,PAYLOAD,2023-04-11 23:33:25,15.08848103,0.0001371,53.214,194.8117,69.4044,290.7095,0.00015727,2.216e-05,0.0,0 STARLINK-4269,1 52992U 22076G   23101.98154860  .00002216  00000-0  15727-3 0  9998,2 52992  53.2140 194.8117 0001371  69.4044 290.7095 15.08848103 42741,6917.856,95.437,540.669,538.772,0.0
52992.0,STARLINK-4269,PAYLOAD,2023-04-12 12:16:31,15.08837318,0.000155,53.216,192.431,84.8586,275.2583,-3.384e-05,-8.26e-06,0.0,0 STARLINK-4269,1 52992U 22076G   23102.51147324 -.00000826  00000-0 -33840-4 0  9999,2 52992  53.2160 192.4310 0001550  84.8586 275.2583 15.08837318 42356,6917.889,95.438,540.826,538.681,0.0
52992.0,STARLINK-4269,PAYLOAD,2023-04-13 10:31:55,15.0884458,0.0001413,53.2155,188.2692,78.8695,281.2456,1.841e-05,5e-08,0.0,0 STARLINK-4269,1 52992U 22076G   23103.43883158  .00000005  00000-0  18410-4 0  9996,2 52992  53.2155 188.2692 0001413  78.8695 281.2456 15.08844580 42498,6917.866,95.437,540.709,538.754,0.0
52992.0,STARLINK-4269,PAYLOAD,2023-04-13 16:53:27,15.0885268,0.0001427,53.2151,187.0771,88.8809,271.2347,0.00026795,3.98e-05,0.0,0 STARLINK-4269,1 52992U 22076G   23103.70378669  .00003980  00000-0  26795-3 0  9991,2 52992  53.2151 187.0771 0001427  88.8809 271.2347 15.08852680 43008,6917.842,95.437,540.694,538.719,0.0
52992.0,STARLINK-4269,PAYLOAD,2023-04-14 10:22:42,15.08838223,0.0001289,53.2153,183.8087,75.2353,284.8782,0.00013442,1.852e-05,0.0,0 STARLINK-4269,1 52992U 22076G   23104.43243626  .00001852  00000-0  13442-3 0  9997,2 52992  53.2153 183.8087 0001289  75.2353 284.8782 15.08838223 42643,6917.886,95.438,540.643,538.859,0.0
